#aV2014 12  2  0  0  0.00000000     288 DD+AD WGS84 FIT  NGA
## 1821 172800.00000000   300.00000000 56993 0.0000000000000
+   32     1  2  3  4  5  6  7  8  9 10 11 12 13 14 15 16 17
+         18 19 20 21 22 23 24 25 26 27 28 29 30 31 32  0  0
+          0  0  0  0  0  0  0  0  0  0  0  0  0  0  0  0  0
+          0  0  0  0  0  0  0  0  0  0  0  0  0  0  0  0  0
+          0  0  0  0  0  0  0  0  0  0  0  0  0  0  0  0  0
++         2  2  2  2  2  2  2  2  2  2  2  2  2  2  2  2  2
++         2  2  2  2  2  2  2  2  2  2  2  2  2  2  2  0  0
++         0  0  0  0  0  0  0  0  0  0  0  0  0  0  0  0  0
++         0  0  0  0  0  0  0  0  0  0  0  0  0  0  0  0  0
++         0  0  0  0  0  0  0  0  0  0  0  0  0  0  0  0  0
%c cc cc ccc ccc cccc cccc cccc cccc ccccc ccccc ccccc ccccc
%c cc cc ccc ccc cccc cccc cccc cccc ccccc ccccc ccccc ccccc
%f  0.0000000  0.000000000  0.00000000000  0.000000000000000
%f  0.0000000  0.000000000  0.00000000000  0.000000000000000
%i    0    0    0    0      0      0      0      0         0
%i    0    0    0    0      0      0      0      0         0
/*      NGA, ST. LOUIS,MO.                                  
/*   EPHEMERIS COMPUTED FROM  1 DAYS OF DATA                
/*   EPOCHA SMOOTHER                                       
/* CCCCCCCCCCCCCCCCCCCCCCCCCCCCCCCCCCCCCCCCCCCCCCCCCCCCCCCCC
*  2014 12  2  4 30  0.00000000
P  1 -12667.746425 -13331.172549 -19272.942034    -11.552799                    
V  1  24294.946375  -1472.275238 -14832.918854      0.003643                    
P  2 -12845.398837  14149.754544  18570.247286    533.424229                    
V  2 -23228.010594   -935.653841 -16107.233999      0.022127                    
P  3  -8478.661360 -24256.677217  -7431.385109     40.285018                    
V  3   6952.579073   6785.928310 -29703.604278      0.344132                    
P  4   -734.989578 -15826.091298 -21631.927320     -3.858261                    
V  4  26811.723725   -675.251041   -159.296993     -0.004450                    
P  5  -2521.977754  19871.202264  17302.886682   -311.188946                    
V  5 -13260.908973 -17899.954754  18743.553453      0.046312                    
P  6 -24126.361918   6644.563404   8859.211543     19.385629                    
V  6 -11322.519345  -2376.094674 -29020.239119      0.066443                    
P  7 -23187.821880  -7675.685001  10958.006472    418.243263                    
V  7  13643.383933  -1740.315888  27553.068397      0.036723                    
P  8  -2275.010044 -14758.692770  22210.514975     16.563685                    
V  8  27397.035864   3130.664139   4319.838785      0.001794                    
P  9 -13294.785736  -7465.994303  21746.246183    -17.906686                    
V  9  13356.158953 -24177.169309   -146.245629     -0.084836                    
P 10 -15597.521896   3462.243265  20897.510503   -152.310654                    
V 10 -13428.375408 -23904.642737  -5534.564186     -0.016469                    
P 11  -5793.197363 -15918.064855 -20982.343722   -540.547969                    
V 11  24274.940683  -8732.886431     80.975065     -0.028372                    
P 12   9738.348892  24410.553989  -4648.790658    250.473318                    
V 12  -4228.859353  -4253.646740 -31511.521144      0.028398                    
P 13 -18879.795821  16752.940686   8460.576760    -65.790608                    
V 13   4625.073085 -10041.155004  29508.481598     -0.034186                    
P 14  19105.770909 -10133.802762 -15089.302156    110.317889                    
V 14  -9113.902039  17485.643265 -23072.023321     -0.036117                    
P 15   1180.672677  21943.585475 -14765.011779   -217.904313                    
V 15 -10948.118316  15565.363799  22680.643509     -0.022184                    
P 16   3214.306969 -19233.622390  17800.420314   -176.430688                    
V 16  11677.772296  19618.954826  19379.994126      0.029333                    
P 17 -18605.572682   9032.683331 -16256.596897   -141.207522                    
V 17   9510.332480 -19072.987669 -21348.045636     -0.025453                    
P 18  19369.263286  11670.993169 -13707.502924    362.243642                    
V 18   7085.581608  16971.517988  23346.223129      0.026292                    
P 19   5913.162853 -22917.531010 -11750.888372   -490.645871                    
V 19  10421.604965 -10815.066116  27160.254588     -0.016663                    
P 20 -15187.355641 -21835.354338     15.980408    262.841995                    
V 20   3009.532600  -2404.370436 -30927.576116      0.041338                    
P 21  25873.723289   3958.189048   6316.047162   -397.956997                    
V 21  -7034.042739   3296.255574  29502.573215     -0.020805                    
P 22  16736.273796  -2165.087024 -20327.082119    292.679022                    
V 22  13019.204100  23000.048600   8015.888960      0.036788                    
P 23  -6197.936003 -17108.975344  19329.989674    -71.468418                    
V 23  13425.792725 -20489.394314 -14344.916109     -0.027633                    
P 24   9122.652272  14253.395775 -20517.414226    -39.377802                    
V 24 -25963.831203   1683.264355 -10261.710229     -0.005941                    
P 25  17233.096382  18828.875697   7533.607835     11.502524                    
V 25   3192.136570   9300.285058 -30094.644180     -0.019377                    
P 26 -11530.537684  23247.853206  -5561.761253   -142.634089                    
V 26  -5613.974619   3730.609347  31177.638611     -0.131820                    
P 27  12233.623793 -23509.720500   -944.608308     34.052123                    
V 27   2963.321111    281.128158  31883.326436      0.027690                    
P 28 -16728.815797  -4395.757103 -19574.215159    402.372647                    
V 28 -11031.502612 -23696.722430  14190.313042      0.027308                    
P 29  11167.932026  10257.665193  21835.802166    576.903466                    
V 29 -14882.883714  23271.592321  -3289.183517      0.025314                    
P 30 -26547.474696  -1419.966654   -255.825646    -83.266158                    
V 30   -152.749515  -2903.701367  31645.545769     -0.017035                    
P 31  23169.653599  -7271.343159  11288.553250    328.108001                    
V 31  13937.007822   1924.321196 -27420.504331     -0.006504                    
P 32  -2701.859122 -24117.973852 -11400.760794   -280.549797                    
V 32   8424.385776  11819.027695 -26435.372372      0.088806                    
EOF
